{"type": "FeatureCollection", "features": [{"type": "Feature", "properties": {"norad_id": 2807, "name": "OPS 7218 (TRANSIT 16)", "group": "nnss", "lat": 81.97418721271842, "lon": -3.4494374737590072, "alt_km": 1051.7759694886909, "timestamp": "2025-12-06T05:40:09.509930+00:00", "meta": {"OBJECT_NAME": "OPS 7218 (TRANSIT 16)", "OBJECT_ID": "1967-048A", "EPOCH": "2025-12-05T07:59:01.323744", "MEAN_MOTION": 13.50720137, "ECCENTRICITY": 0.00215888, "INCLINATION": 89.6734, "RA_OF_ASC_NODE": 354.262, "ARG_OF_PERICENTER": 134.0098, "MEAN_ANOMALY": 237.1093, "EPHEMERIS_TYPE": 0, "CLASSIFICATION_TYPE": "U", "NORAD_CAT_ID": 2807, "ELEMENT_SET_NO": 999, "REV_AT_EPOCH": 88176, "BSTAR": 0.00025304454, "MEAN_MOTION_DOT": 1.73e-06, "MEAN_MOTION_DDOT": 0}, "tle": {"line1": "1 02807U 67048A   25339.33265421  .00000173  00000+0  25304-3 0  9997", "line2": "2 02807  89.6734 354.2620 0021588 134.0098 237.1093 13.50720137881761"}}, "geometry": {"type": "Point", "coordinates": [-3.4494374737590072, 81.97418721271842]}}, {"type": "Feature", "properties": {"norad_id": 2965, "name": "OPS 4947 (TRANSIT 17)", "group": "nnss", "lat": 82.67703078302246, "lon": 30.77789722672581, "alt_km": 1085.9322975617379, "timestamp": "2025-12-06T05:40:09.509952+00:00", "meta": {"OBJECT_NAME": "OPS 4947 (TRANSIT 17)", "OBJECT_ID": "1967-092A", "EPOCH": "2025-12-05T04:43:52.267008", "MEAN_MOTION": 13.53450812, "ECCENTRICITY": 0.00458383, "INCLINATION": 89.2505, "RA_OF_ASC_NODE": 25.0107, "ARG_OF_PERICENTER": 257.1744, "MEAN_ANOMALY": 165.7724, "EPHEMERIS_TYPE": 0, "CLASSIFICATION_TYPE": "U", "NORAD_CAT_ID": 2965, "ELEMENT_SET_NO": 999, "REV_AT_EPOCH": 86995, "BSTAR": 0.00029199514, "MEAN_MOTION_DOT": 2.08e-06, "MEAN_MOTION_DDOT": 0}, "tle": {"line1": "1 02965U 67092A   25339.19713272  .00000208  00000+0  29200-3 0  9995", "line2": "2 02965  89.2505  25.0107 0045838 257.1744 165.7724 13.53450812869957"}}, "geometry": {"type": "Point", "coordinates": [30.77789722672581, 82.67703078302246]}}, {"type": "Feature", "properties": {"norad_id": 3133, "name": "OPS 7034 (TRANSIT 18)", "group": "nnss", "lat": -83.02942805663105, "lon": -86.15758939944115, "alt_km": 1072.5594412013807, "timestamp": "2025-12-06T05:40:09.509966+00:00", "meta": {"OBJECT_NAME": "OPS 7034 (TRANSIT 18)", "OBJECT_ID": "1968-012A", "EPOCH": "2025-12-05T07:32:51.171360", "MEAN_MOTION": 13.51563233, "ECCENTRICITY": 0.00731583, "INCLINATION": 90.0271, "RA_OF_ASC_NODE": 273.6181, "ARG_OF_PERICENTER": 190.7388, "MEAN_ANOMALY": 283.2365, "EPHEMERIS_TYPE": 0, "CLASSIFICATION_TYPE": "U", "NORAD_CAT_ID": 3133, "ELEMENT_SET_NO": 999, "REV_AT_EPOCH": 56818, "BSTAR": 0.00025439298, "MEAN_MOTION_DOT": 1.78e-06, "MEAN_MOTION_DDOT": 0}, "tle": {"line1": "1 03133U 68012A   25339.31448115  .00000178  00000+0  25439-3 0  9997", "line2": "2 03133  90.0271 273.6181 0073158 190.7388 283.2365 13.51563233568188"}}, "geometry": {"type": "Point", "coordinates": [-86.15758939944115, -83.02942805663105]}}, {"type": "Feature", "properties": {"norad_id": 4507, "name": "NNSS 19 (TRANSIT 19)", "group": "nnss", "lat": -71.82385136467698, "lon": 54.51206605122508, "alt_km": 1010.667203726266, "timestamp": "2025-12-06T05:40:09.509978+00:00", "meta": {"OBJECT_NAME": "NNSS 19 (TRANSIT 19)", "OBJECT_ID": "1970-067A", "EPOCH": "2025-12-05T07:05:11.359968", "MEAN_MOTION": 13.51312141, "ECCENTRICITY": 0.01710451, "INCLINATION": 90.0056, "RA_OF_ASC_NODE": 234.5286, "ARG_OF_PERICENTER": 315.1116, "MEAN_ANOMALY": 43.6307, "EPHEMERIS_TYPE": 0, "CLASSIFICATION_TYPE": "U", "NORAD_CAT_ID": 4507, "ELEMENT_SET_NO": 999, "REV_AT_EPOCH": 72121, "BSTAR": 0.00034478586, "MEAN_MOTION_DOT": 2.53e-06, "MEAN_MOTION_DDOT": 0}, "tle": {"line1": "1 04507U 70067A   25339.29527037  .00000253  00000+0  34479-3 0  9992", "line2": "2 04507  90.0056 234.5286 0171045 315.1116  43.6307 13.51312141721212"}}, "geometry": {"type": "Point", "coordinates": [54.51206605122508, -71.82385136467698]}}, {"type": "Feature", "properties": {"norad_id": 6909, "name": "NNSS 20 (TRANSIT 20)", "group": "nnss", "lat": -37.44400401054381, "lon": 75.26203007683455, "alt_km": 1056.8750729365183, "timestamp": "2025-12-06T05:40:09.509989+00:00", "meta": {"OBJECT_NAME": "NNSS 20 (TRANSIT 20)", "OBJECT_ID": "1973-081A", "EPOCH": "2025-12-05T07:36:58.150944", "MEAN_MOTION": 13.71429296, "ECCENTRICITY": 0.01565202, "INCLINATION": 89.8558, "RA_OF_ASC_NODE": 255.1654, "ARG_OF_PERICENTER": 100.2959, "MEAN_ANOMALY": 261.5893, "EPHEMERIS_TYPE": 0, "CLASSIFICATION_TYPE": "U", "NORAD_CAT_ID": 6909, "ELEMENT_SET_NO": 999, "REV_AT_EPOCH": 80259, "BSTAR": 0.00036019381, "MEAN_MOTION_DOT": 3.65e-06, "MEAN_MOTION_DDOT": 0}, "tle": {"line1": "1 06909U 73081A   25339.31733971  .00000365  00000+0  36019-3 0  9994", "line2": "2 06909  89.8558 255.1654 0156520 100.2959 261.5893 13.71429296802594"}}, "geometry": {"type": "Point", "coordinates": [75.26203007683455, -37.44400401054381]}}, {"type": "Feature", "properties": {"norad_id": 10457, "name": "TRANSAT", "group": "nnss", "lat": -45.922673396341715, "lon": 78.4639836035515, "alt_km": 1087.8314818785393, "timestamp": "2025-12-06T05:40:09.510000+00:00", "meta": {"OBJECT_NAME": "TRANSAT", "OBJECT_ID": "1977-106A", "EPOCH": "2025-12-05T07:01:17.119200", "MEAN_MOTION": 13.48941891, "ECCENTRICITY": 0.00247154, "INCLINATION": 89.6484, "RA_OF_ASC_NODE": 78.8607, "ARG_OF_PERICENTER": 211.4141, "MEAN_ANOMALY": 202.5941, "EPHEMERIS_TYPE": 0, "CLASSIFICATION_TYPE": "U", "NORAD_CAT_ID": 10457, "ELEMENT_SET_NO": 999, "REV_AT_EPOCH": 36643, "BSTAR": 0.00021730397, "MEAN_MOTION_DOT": 1.46e-06, "MEAN_MOTION_DDOT": 0}, "tle": {"line1": "1 10457U 77106A   25339.29255925  .00000146  00000+0  21730-3 0  9995", "line2": "2 10457  89.6484  78.8607 0024715 211.4141 202.5941 13.48941891366430"}}, "geometry": {"type": "Point", "coordinates": [78.4639836035515, -45.922673396341715]}}, {"type": "Feature", "properties": {"norad_id": 12458, "name": "NOVA 1", "group": "nnss", "lat": 84.57728434115762, "lon": -90.07888150729181, "alt_km": 1154.0482624568522, "timestamp": "2025-12-06T05:40:09.510011+00:00", "meta": {"OBJECT_NAME": "NOVA 1", "OBJECT_ID": "1981-044A", "EPOCH": "2025-12-05T07:29:41.224416", "MEAN_MOTION": 13.23277288, "ECCENTRICITY": 0.00156331, "INCLINATION": 89.8524, "RA_OF_ASC_NODE": 91.4902, "ARG_OF_PERICENTER": 122.2949, "MEAN_ANOMALY": 254.282, "EPHEMERIS_TYPE": 0, "CLASSIFICATION_TYPE": "U", "NORAD_CAT_ID": 12458, "ELEMENT_SET_NO": 999, "REV_AT_EPOCH": 15088, "BSTAR": 0.00015716189, "MEAN_MOTION_DOT": 7.6e-07, "MEAN_MOTION_DDOT": 0}, "tle": {"line1": "1 12458U 81044A   25339.31228269  .00000076  00000+0  15716-3 0  9997", "line2": "2 12458  89.8524  91.4902 0015633 122.2949 254.2820 13.23277288150888"}}, "geometry": {"type": "Point", "coordinates": [-90.07888150729181, 84.57728434115762]}}, {"type": "Feature", "properties": {"norad_id": 15362, "name": "NOVA 3", "group": "nnss", "lat": -26.56964750331678, "lon": 80.51921334358195, "alt_km": 1156.290112524248, "timestamp": "2025-12-06T05:40:09.510022+00:00", "meta": {"OBJECT_NAME": "NOVA 3", "OBJECT_ID": "1984-110A", "EPOCH": "2025-12-05T06:17:32.923104", "MEAN_MOTION": 13.23043183, "ECCENTRICITY": 0.00311072, "INCLINATION": 90.1224, "RA_OF_ASC_NODE": 80.4465, "ARG_OF_PERICENTER": 352.9465, "MEAN_ANOMALY": 24.0948, "EPHEMERIS_TYPE": 0, "CLASSIFICATION_TYPE": "U", "NORAD_CAT_ID": 15362, "ELEMENT_SET_NO": 999, "REV_AT_EPOCH": 98600, "BSTAR": 0.00019122102, "MEAN_MOTION_DOT": 8.9e-07, "MEAN_MOTION_DDOT": 0}, "tle": {"line1": "1 15362U 84110A   25339.26218661  .00000089  00000+0  19122-3 0  9999", "line2": "2 15362  90.1224  80.4465 0031107 352.9465  24.0948 13.23043183986008"}}, "geometry": {"type": "Point", "coordinates": [80.51921334358195, -26.56964750331678]}}, {"type": "Feature", "properties": {"norad_id": 15935, "name": "OSCAR 30", "group": "nnss", "lat": 70.01218776093236, "lon": -79.80587902566806, "alt_km": 991.3373179346518, "timestamp": "2025-12-06T05:40:09.510033+00:00", "meta": {"OBJECT_NAME": "OSCAR 30", "OBJECT_ID": "1985-066A", "EPOCH": "2025-12-05T07:49:41.794752", "MEAN_MOTION": 13.36076356, "ECCENTRICITY": 0.01693593, "INCLINATION": 90.1648, "RA_OF_ASC_NODE": 99.726, "ARG_OF_PERICENTER": 104.5941, "MEAN_ANOMALY": 310.4687, "EPHEMERIS_TYPE": 0, "CLASSIFICATION_TYPE": "U", "NORAD_CAT_ID": 15935, "ELEMENT_SET_NO": 999, "REV_AT_EPOCH": 96354, "BSTAR": 0.00022120398, "MEAN_MOTION_DOT": 1.33e-06, "MEAN_MOTION_DDOT": 0}, "tle": {"line1": "1 15935U 85066A   25339.32617818  .00000133  00000+0  22120-3 0  9992", "line2": "2 15935  90.1648  99.7260 0169359 104.5941 310.4687 13.36076356963549"}}, "geometry": {"type": "Point", "coordinates": [-79.80587902566806, 70.01218776093236]}}, {"type": "Feature", "properties": {"norad_id": 15936, "name": "OSCAR 24", "group": "nnss", "lat": -10.402567438310355, "lon": -87.8425373930228, "alt_km": 1108.33774796536, "timestamp": "2025-12-06T05:40:09.510043+00:00", "meta": {"OBJECT_NAME": "OSCAR 24", "OBJECT_ID": "1985-066B", "EPOCH": "2025-12-05T07:25:51.932640", "MEAN_MOTION": 13.35934099, "ECCENTRICITY": 0.01703737, "INCLINATION": 90.1788, "RA_OF_ASC_NODE": 92.174, "ARG_OF_PERICENTER": 111.0792, "MEAN_ANOMALY": 303.576, "EPHEMERIS_TYPE": 0, "CLASSIFICATION_TYPE": "U", "NORAD_CAT_ID": 15936, "ELEMENT_SET_NO": 999, "REV_AT_EPOCH": 96544, "BSTAR": 0.00021007042, "MEAN_MOTION_DOT": 1.27e-06, "MEAN_MOTION_DDOT": 0}, "tle": {"line1": "1 15936U 85066B   25339.30962885  .00000127  00000+0  21007-3 0  9994", "line2": "2 15936  90.1788  92.1740 0170373 111.0792 303.5760 13.35934099965442"}}, "geometry": {"type": "Point", "coordinates": [-87.8425373930228, -10.402567438310355]}}]}